[{"OBJECT_NAME":"STARLINK-2582","OBJECT_ID":"2021-040AJ","EPOCH":"2026-01-29T00:00:02.000160","MEAN_MOTION":15.46801982,"ECCENTRICITY":0.00054567,"INCLINATION":53.0642,"RA_OF_ASC_NODE":321.0087,"ARG_OF_PERICENTER":102.6866,"MEAN_ANOMALY":304.9881,"EPHEMERIS_TYPE":0,"CLASSIFICATION_TYPE":"U","NORAD_CAT_ID":48460,"ELEMENT_SET_NO":999,"REV_AT_EPOCH":585,"BSTAR":0.00079092232,"MEAN_MOTION_DOT":0.00040097,"MEAN_MOTION_DDOT":0},{"OBJECT_NAME":"STARLINK-2683","OBJECT_ID":"2021-040AL","EPOCH":"2026-01-28T20:13:50.707200","MEAN_MOTION":15.0637225,"ECCENTRICITY":0.00015795,"INCLINATION":53.0558,"RA_OF_ASC_NODE":10.778,"ARG_OF_PERICENTER":117.6412,"MEAN_ANOMALY":242.4738,"EPHEMERIS_TYPE":0,"CLASSIFICATION_TYPE":"U","NORAD_CAT_ID":48462,"ELEMENT_SET_NO":999,"REV_AT_EPOCH":26048,"BSTAR":-0.00026898458,"MEAN_MOTION_DOT":-4.283e-5,"MEAN_MOTION_DDOT":0},{"OBJECT_NAME":"STARLINK-2686","OBJECT_ID":"2021-040AN","EPOCH":"2026-01-28T23:03:37.275840","MEAN_MOTION":15.06396854,"ECCENTRICITY":0.0001825,"INCLINATION":53.0561,"RA_OF_ASC_NODE":9.9654,"ARG_OF_PERICENTER":95.9647,"MEAN_ANOMALY":264.155,"EPHEMERIS_TYPE":0,"CLASSIFICATION_TYPE":"U","NORAD_CAT_ID":48464,"ELEMENT_SET_NO":999,"REV_AT_EPOCH":26050,"BSTAR":0.00077871646,"MEAN_MOTION_DOT":0.00011335,"MEAN_MOTION_DDOT":0},{"OBJECT_NAME":"STARLINK-2681","OBJECT_ID":"2021-040AP","EPOCH":"2026-01-28T23:19:32.231712","MEAN_MOTION":15.06444163,"ECCENTRICITY":0.0001445,"INCLINATION":53.0544,"RA_OF_ASC_NODE":9.9179,"ARG_OF_PERICENTER":90.2239,"MEAN_ANOMALY":269.8916,"EPHEMERIS_TYPE":0,"CLASSIFICATION_TYPE":"U","NORAD_CAT_ID":48465,"ELEMENT_SET_NO":999,"REV_AT_EPOCH":26051,"BSTAR":0.0013838187,"MEAN_MOTION_DOT":0.00020415,"MEAN_MOTION_DDOT":0},{"OBJECT_NAME":"STARLINK-2687","OBJECT_ID":"2021-040AQ","EPOCH":"2026-01-28T22:58:18.760512","MEAN_MOTION":15.06403804,"ECCENTRICITY":0.0001486,"INCLINATION":53.0543,"RA_OF_ASC_NODE":9.9825,"ARG_OF_PERICENTER":99.7673,"MEAN_ANOMALY":260.3484,"EPHEMERIS_TYPE":0,"CLASSIFICATION_TYPE":"U","NORAD_CAT_ID":48466,"ELEMENT_SET_NO":999,"REV_AT_EPOCH":26051,"BSTAR":0.00026467497,"MEAN_MOTION_DOT":3.663e-5,"MEAN_MOTION_DDOT":0},{"OBJECT_NAME":"STARLINK-2659","OBJECT_ID":"2021-040AR","EPOCH":"2026-01-28T23:35:27.614400","MEAN_MOTION":15.06388393,"ECCENTRICITY":0.0001724,"INCLINATION":53.0538,"RA_OF_ASC_NODE":9.863,"ARG_OF_PERICENTER":45.0857,"MEAN_ANOMALY":315.0271,"EPHEMERIS_TYPE":0,"CLASSIFICATION_TYPE":"U","NORAD_CAT_ID":48467,"ELEMENT_SET_NO":999,"REV_AT_EPOCH":26051,"BSTAR":-0.0001521308,"MEAN_MOTION_DOT":-2.546e-5,"MEAN_MOTION_DDOT":0},{"OBJECT_NAME":"STARLINK-2685","OBJECT_ID":"2021-040AS","EPOCH":"2026-01-28T23:08:55.476672","MEAN_MOTION":15.06407386,"ECCENTRICITY":0.00014732,"INCLINATION":53.0537,"RA_OF_ASC_NODE":9.9487,"ARG_OF_PERICENTER":77.0739,"MEAN_ANOMALY":283.0414,"EPHEMERIS_TYPE":0,"CLASSIFICATION_TYPE":"U","NORAD_CAT_ID":48468,"ELEMENT_SET_NO":999,"REV_AT_EPOCH":26051,"BSTAR":-5.6489835e-5,"MEAN_MOTION_DOT":-1.123e-5,"MEAN_MOTION_DDOT":0},{"OBJECT_NAME":"STARLINK-2661","OBJECT_ID":"2021-040AT","EPOCH":"2026-01-28T23:30:10.789056","MEAN_MOTION":15.06395118,"ECCENTRICITY":0.0001355,"INCLINATION":53.0562,"RA_OF_ASC_NODE":9.8846,"ARG_OF_PERICENTER":79.1424,"MEAN_ANOMALY":280.9717,"EPHEMERIS_TYPE":0,"CLASSIFICATION_TYPE":"U","NORAD_CAT_ID":48469,"ELEMENT_SET_NO":999,"REV_AT_EPOCH":26051,"BSTAR":4.2406125e-5,"MEAN_MOTION_DOT":3.5e-6,"MEAN_MOTION_DDOT":0},{"OBJECT_NAME":"STARLINK-2675","OBJECT_ID":"2021-040AU","EPOCH":"2026-01-28T22:37:07.336128","MEAN_MOTION":15.064451,"ECCENTRICITY":0.00010271,"INCLINATION":53.0577,"RA_OF_ASC_NODE":10.3964,"ARG_OF_PERICENTER":78.8009,"MEAN_ANOMALY":281.3095,"EPHEMERIS_TYPE":0,"CLASSIFICATION_TYPE":"U","NORAD_CAT_ID":48470,"ELEMENT_SET_NO":999,"REV_AT_EPOCH":26049,"BSTAR":-0.00069768669,"MEAN_MOTION_DOT":-0.00010671,"MEAN_MOTION_DDOT":0},{"OBJECT_NAME":"STARLINK-2684","OBJECT_ID":"2021-040AV","EPOCH":"2026-01-28T23:14:14.218368","MEAN_MOTION":15.06404293,"ECCENTRICITY":0.00015252,"INCLINATION":53.055,"RA_OF_ASC_NODE":9.9337,"ARG_OF_PERICENTER":87.8186,"MEAN_ANOMALY":272.2978,"EPHEMERIS_TYPE":0,"CLASSIFICATION_TYPE":"U","NORAD_CAT_ID":48471,"ELEMENT_SET_NO":999,"REV_AT_EPOCH":26050,"BSTAR":0.00022276228,"MEAN_MOTION_DOT":3.038e-5,"MEAN_MOTION_DDOT":0},{"OBJECT_NAME":"STARLINK-2722","OBJECT_ID":"2021-040AW","EPOCH":"2026-01-28T05:16:45.283584","MEAN_MOTION":15.06392962,"ECCENTRICITY":0.00014044,"INCLINATION":53.0544,"RA_OF_ASC_NODE":13.2947,"ARG_OF_PERICENTER":94.0816,"MEAN_ANOMALY":266.0333,"EPHEMERIS_TYPE":0,"CLASSIFICATION_TYPE":"U","NORAD_CAT_ID":48472,"ELEMENT_SET_NO":999,"REV_AT_EPOCH":26038,"BSTAR":-0.00033546347,"MEAN_MOTION_DOT":-5.274e-5,"MEAN_MOTION_DDOT":0},{"OBJECT_NAME":"STARLINK-2658","OBJECT_ID":"2021-040AX","EPOCH":"2026-01-28T06:09:50.939712","MEAN_MOTION":15.06384196,"ECCENTRICITY":0.00013642,"INCLINATION":53.0555,"RA_OF_ASC_NODE":13.1312,"ARG_OF_PERICENTER":110.7168,"MEAN_ANOMALY":249.3968,"EPHEMERIS_TYPE":0,"CLASSIFICATION_TYPE":"U","NORAD_CAT_ID":48473,"ELEMENT_SET_NO":999,"REV_AT_EPOCH":26039,"BSTAR":-3.4682715e-5,"MEAN_MOTION_DOT":-7.98e-6,"MEAN_MOTION_DDOT":0},{"OBJECT_NAME":"STARLINK-2697","OBJECT_ID":"2021-040AY","EPOCH":"2026-01-28T05:22:04.504800","MEAN_MOTION":15.06389384,"ECCENTRICITY":0.00016243,"INCLINATION":53.055,"RA_OF_ASC_NODE":13.276,"ARG_OF_PERICENTER":88.1438,"MEAN_ANOMALY":271.9738,"EPHEMERIS_TYPE":0,"CLASSIFICATION_TYPE":"U","NORAD_CAT_ID":48474,"ELEMENT_SET_NO":999,"REV_AT_EPOCH":26038,"BSTAR":0.00015918804,"MEAN_MOTION_DOT":2.09e-5,"MEAN_MOTION_DDOT":0},{"OBJECT_NAME":"STARLINK-2728","OBJECT_ID":"2021-040BC","EPOCH":"2026-01-28T22:21:09.010656","MEAN_MOTION":15.06393331,"ECCENTRICITY":0.00013911,"INCLINATION":53.055,"RA_OF_ASC_NODE":10.1011,"ARG_OF_PERICENTER":88.2676,"MEAN_ANOMALY":271.8472,"EPHEMERIS_TYPE":0,"CLASSIFICATION_TYPE":"U","NORAD_CAT_ID":48478,"ELEMENT_SET_NO":999,"REV_AT_EPOCH":26049,"BSTAR":-5.0972564e-5,"MEAN_MOTION_DOT":-1.04e-5,"MEAN_MOTION_DDOT":0},{"OBJECT_NAME":"STARLINK-2755","OBJECT_ID":"2021-040BD","EPOCH":"2026-01-28T22:15:51.538176","MEAN_MOTION":15.06394309,"ECCENTRICITY":0.00013238,"INCLINATION":53.0565,"RA_OF_ASC_NODE":10.115,"ARG_OF_PERICENTER":85.3396,"MEAN_ANOMALY":274.7744,"EPHEMERIS_TYPE":0,"CLASSIFICATION_TYPE":"U","NORAD_CAT_ID":48479,"ELEMENT_SET_NO":999,"REV_AT_EPOCH":26049,"BSTAR":-9.0216093e-5,"MEAN_MOTION_DOT":-1.625e-5,"MEAN_MOTION_DDOT":0},{"OBJECT_NAME":"STARLINK-2706","OBJECT_ID":"2021-040BF","EPOCH":"2026-01-28T22:58:32.450592","MEAN_MOTION":15.29359755,"ECCENTRICITY":0.00016352,"INCLINATION":53.1586,"RA_OF_ASC_NODE":18.0583,"ARG_OF_PERICENTER":97.6354,"MEAN_ANOMALY":262.4832,"EPHEMERIS_TYPE":0,"CLASSIFICATION_TYPE":"U","NORAD_CAT_ID":48481,"ELEMENT_SET_NO":999,"REV_AT_EPOCH":26038,"BSTAR":2.4816887e-5,"MEAN_MOTION_DOT":3.6e-6,"MEAN_MOTION_DDOT":0}]
