STARLINK-2582           
1 48460U 21040AJ  26029.00002315  .00040097  00000+0  79092-3 0  9998
2 48460  53.0642 321.0087 0005456 102.6866 304.9881 15.46801982  5859
STARLINK-2683           
1 48462U 21040AL  26028.84294800 -.00004283  00000+0 -26898-3 0  9998
2 48462  53.0558  10.7780 0001579 117.6412 242.4738 15.06372250260480
STARLINK-2686           
1 48464U 21040AN  26028.96084810  .00011335  00000+0  77872-3 0  9993
2 48464  53.0561   9.9654 0001825  95.9647 264.1550 15.06396854260500
STARLINK-2681           
1 48465U 21040AP  26028.97190083  .00020415  00000+0  13838-2 0  9995
2 48465  53.0544   9.9179 0001445  90.2239 269.8916 15.06444163260513
STARLINK-2687           
1 48466U 21040AQ  26028.95716158  .00003663  00000+0  26467-3 0  9990
2 48466  53.0543   9.9825 0001486  99.7673 260.3484 15.06403804260515
STARLINK-2659           
1 48467U 21040AR  26028.98295850 -.00002546  00000+0 -15213-3 0  9993
2 48467  53.0538   9.8630 0001724  45.0857 315.0271 15.06388393260513
STARLINK-2685           
1 48468U 21040AS  26028.96453098 -.00001123  00000+0 -56490-4 0  9995
2 48468  53.0537   9.9487 0001473  77.0739 283.0414 15.06407386260516
STARLINK-2661           
1 48469U 21040AT  26028.97929154  .00000350  00000+0  42406-4 0  9999
2 48469  53.0562   9.8846 0001355  79.1424 280.9717 15.06395118260517
STARLINK-2675           
1 48470U 21040AU  26028.94244602 -.00010671  00000+0 -69769-3 0  9995
2 48470  53.0577  10.3964 0001027  78.8009 281.3095 15.06445100260492
STARLINK-2684           
1 48471U 21040AV  26028.96822012  .00003038  00000+0  22276-3 0  9994
2 48471  53.0550   9.9337 0001525  87.8186 272.2978 15.06404293260500
STARLINK-2722           
1 48472U 21040AW  26028.21996856 -.00005274  00000+0 -33546-3 0  9999
2 48472  53.0544  13.2947 0001404  94.0816 266.0333 15.06392962260386
STARLINK-2658           
1 48473U 21040AX  26028.25683958 -.00000798  00000+0 -34683-4 0  9990
2 48473  53.0555  13.1312 0001364 110.7168 249.3968 15.06384196260394
STARLINK-2697           
1 48474U 21040AY  26028.22366325  .00002090  00000+0  15919-3 0  9999
2 48474  53.0550  13.2760 0001624  88.1438 271.9738 15.06389384260384
STARLINK-2728           
1 48478U 21040BC  26028.93135429 -.00001040  00000+0 -50973-4 0  9996
2 48478  53.0550  10.1011 0001391  88.2676 271.8472 15.06393331260492
STARLINK-2755           
1 48479U 21040BD  26028.92767984 -.00001625  00000+0 -90216-4 0  9996
2 48479  53.0565  10.1150 0001323  85.3396 274.7744 15.06394309260495
STARLINK-2706           
1 48481U 21040BF  26028.95732003  .00000360  00000+0  24817-4 0  9993
2 48481  53.1586  18.0583 0001635  97.6354 262.4832 15.29359755260386
